INMARSAT 4-F2 (SOUTHPA*)
1 28899U 05044A   26105.73593557 -.00000252  00000+0  00000+0 0  9995
2 28899   5.0102  43.7294 0003641   1.1236 207.4702  1.00270570 74894
GSAT-8 (GAGAN/PRN 127)  
1 37605U 11022A   26105.80969939  .00000093  00000+0  00000+0 0  9994
2 37605   1.9690  82.5515 0005463 223.7337 244.2380  1.00271026 52592
LUCH 5A (SDCM/PRN 140)  
1 37951U 11074B   26105.78529049 -.00000037  00000+0  00000+0 0  9995
2 37951   8.5955  74.7086 0002749 291.6553 287.1961  1.00271601 52429
SES-5 (EGNOS/PRN 136)   
1 38652U 12036A   26105.79973266  .00000040  00000+0  00000+0 0  9991
2 38652   0.0599 301.7644 0001914  81.0621 114.0249  1.00272059 43832
GSAT-10 (GAGAN/PRN 128) 
1 38779U 12051B   26105.67263240 -.00000159  00000+0  00000+0 0  9991
2 38779   0.0556 264.8061 0006575 175.7048  88.4761  1.00271444 49475
LUCH 5B (SDCM/PRN 125)  
1 38977U 12061A   26105.65295898 -.00000126  00000+0  00000+0 0  9998
2 38977  10.3496  50.4871 0001962 214.8142 157.3070  1.00272433 48988
ASTRA 5B (EGNOS/PRN 123)
1 39617U 14011B   26105.84527036  .00000143  00000+0  00000+0 0  9998
2 39617   0.0713 306.6543 0002980  54.9739 170.1653  1.00271127 44048
LUCH 5V (SDCM/PRN 141)  
1 39727U 14023A   26105.87366693 -.00000259  00000+0  00000+0 0  9995
2 39727   4.9787  70.3533 0002238 332.4192 210.4658  1.00276281 43735
GSAT-15 (GAGAN/PRN 139) 
1 41028U 15065A   26105.87352116 -.00000252  00000+0  00000+0 0  9997
2 41028   0.0429  62.5185 0002969 350.6216 198.8772  1.00271173 38171
EUTELSAT 117 WEST B (W*)
1 41589U 16038B   26105.81912230 -.00000006  00000+0  00000+0 0  9990
2 41589   0.0199  69.1192 0000166 294.0349  18.7109  1.00272889 36035
SES-15 (WAAS/PRN 133)   
1 42709U 17026A   26103.99975153  .00000064  00000+0  00000+0 0  9996
2 42709   0.0287 317.7538 0001296  49.4787  65.7121  1.00266888  6784
QZS-2 (QZSS/PRN 194)    
1 42738U 17028A   26105.25421352 -.00000198  00000+0  00000+0 0  9997
2 42738  39.5258 244.0707 0741213 270.7149 279.2112  1.00250665  6993
QZS-3 (QZSS/PRN 199)    
1 42917U 17048A   26105.75258580 -.00000342  00000+0  00000+0 0  9995
2 42917   0.0592 211.1754 0001380 156.7338 233.8933  1.00276405 31636
QZS-4 (QZSS/PRN 195)    
1 42965U 17062A   26105.53943836 -.00000289  00000+0  00000+0 0  9995
2 42965  40.1466 344.2850 0745440 270.5878 283.3867  1.00268659 31172
BEIDOU-3 G1 (PRN 130)   
1 43683U 18085A   26105.83393193 -.00000027  00000+0  00000+0 0  9997
2 43683   2.9152  99.0695 0012695 292.1912 272.4077  1.00648783 27434
EUTELSAT 5 WEST B (EGN*)
1 44624U 19067A   26105.79782601 -.00000036  00000+0  00000+0 0  9995
2 44624   0.0748  29.5164 0003294   1.4969  95.1597  1.00271604 23816
BEIDOU-3 G2 (PRN 144)   
1 45344U 20017A   26105.67202571 -.00000132  00000+0  00000+0 0  9999
2 45344   2.7378  46.3018 0002787 347.9629 131.5293  1.00270755 22639
BEIDOU-3 G3 (PRN 143)   
1 45807U 20040A   26105.92379047 -.00000346  00000+0  00000+0 0  9997
2 45807   2.2939  67.2866 0003740 327.2763 252.5621  1.00276336 21442
GALAXY 30 (WAAS/PRN 135)
1 46114U 20056C   26103.41155902  .00000000  00000+0  00000+0 0  9996
2 46114   0.0181 201.6102 0002164 188.7294 194.4261  1.00270848 20641
QZS-1R (QZSS/PRN 196)   
1 49336U 21096A   26105.25698685 -.00000181  00000+0  00000+0 0  9995
2 49336  37.3333  80.5107 0750530 270.5844  80.4993  1.00276789 16370
QZS-6 (QZSS/PRN 200)    
1 62876U 25023A   26105.82788049 -.00000227  00000+0  00000+0 0  9991
2 62876   0.0147 287.8712 0001968 105.3098 199.3742  1.00269970  4337
